{"type": "FeatureCollection", "features": [ {"type": "Feature", "properties": {"norad_id": 30878, "name": "FENGYUN 1C DEB", "group": "fengyun-1c-debris", "lat": -35.327915440006436, "lon": -8.943989656782296, "alt_km": 831.8262208655824, "timestamp": "2025-12-09T05:43:21.005219+00:00", "meta": {"OBJECT_NAME": "FENGYUN 1C DEB", "OBJECT_ID": "1999-025AXQ", "EPOCH": "2025-12-08T11:53:52.305792", "MEAN_MOTION": 14.11872559, "ECCENTRICITY": 0.00401405, "INCLINATION": 98.7196, "RA_OF_ASC_NODE": 344.0894, "ARG_OF_PERICENTER": 306.7311, "MEAN_ANOMALY": 204.5995, "EPHEMERIS_TYPE": 0, "CLASSIFICATION_TYPE": "U", "NORAD_CAT_ID": 30878, "ELEMENT_SET_NO": 999, "REV_AT_EPOCH": 96307, "BSTAR": 0.00099739849, "MEAN_MOTION_DOT": 1.792e-05, "MEAN_MOTION_DDOT": 0}, "tle": {"line1": "1 30878U 99025AXQ 25342.49574428  .00001792  00000+0  99740-3 0  9990", "line2": "2 30878  98.7196 344.0894 0040140 306.7311 204.5995 14.11872559963072"}}, "geometry": {"type": "Point", "coordinates": [-8.943989656782296, -35.327915440006436]}}, {"type": "Feature", "properties": {"norad_id": 30879, "name": "FENGYUN 1C DEB", "group": "fengyun-1c-debris", "lat": -26.631787782954508, "lon": -155.86045600902648, "alt_km": 568.982975359485, "timestamp": "2025-12-09T05:43:21.005230+00:00", "meta": {"OBJECT_NAME": "FENGYUN 1C DEB", "OBJECT_ID": "1999-025AXR", "EPOCH": "2025-12-08T20:01:15.928032", "MEAN_MOTION": 14.66988679, "ECCENTRICITY": 0.0203792, "INCLINATION": 99.3521, "RA_OF_ASC_NODE": 198.9383, "ARG_OF_PERICENTER": 291.8752, "MEAN_ANOMALY": 66.0888, "EPHEMERIS_TYPE": 0, "CLASSIFICATION_TYPE": "U", "NORAD_CAT_ID": 30879, "ELEMENT_SET_NO": 999, "REV_AT_EPOCH": 61882, "BSTAR": 0.0054837, "MEAN_MOTION_DOT": 0.00042143, "MEAN_MOTION_DDOT": 0}, "tle": {"line1": "1 30879U 99025AXR 25342.83421213  .00042143  00000+0  54837-2 0  9994", "line2": "2 30879  99.3521 198.9383 0203792 291.8752  66.0888 14.66988679618821"}}, "geometry": {"type": "Point", "coordinates": [-155.86045600902648, -26.631787782954508]}}, {"type": "Feature", "properties": {"norad_id": 30880, "name": "FENGYUN 1C DEB", "group": "fengyun-1c-debris", "lat": -55.063073810802656, "lon": 67.8737053576796, "alt_km": 829.7005334250807, "timestamp": "2025-12-09T05:43:21.005240+00:00", "meta": {"OBJECT_NAME": "FENGYUN 1C DEB", "OBJECT_ID": "1999-025AXS", "EPOCH": "2025-12-08T03:02:02.008896", "MEAN_MOTION": 14.25555228, "ECCENTRICITY": 0.0022585, "INCLINATION": 98.7948, "RA_OF_ASC_NODE": 53.9547, "ARG_OF_PERICENTER": 120.2749, "MEAN_ANOMALY": 240.067, "EPHEMERIS_TYPE": 0, "CLASSIFICATION_TYPE": "U", "NORAD_CAT_ID": 30880, "ELEMENT_SET_NO": 999, "REV_AT_EPOCH": 96648, "BSTAR": 0.0018630621, "MEAN_MOTION_DOT": 4.377e-05, "MEAN_MOTION_DDOT": 0}, "tle": {"line1": "1 30880U 99025AXS 25342.12641214  .00004377  00000+0  18631-2 0  9992", "line2": "2 30880  98.7948  53.9547 0022585 120.2749 240.0670 14.25555228966487"}}, "geometry": {"type": "Point", "coordinates": [67.8737053576796, -55.063073810802656]}}, {"type": "Feature", "properties": {"norad_id": 30882, "name": "FENGYUN 1C DEB", "group": "fengyun-1c-debris", "lat": 70.61820770233913, "lon": -118.04397415245552, "alt_km": 539.7124168974115, "timestamp": "2025-12-09T05:43:21.005251+00:00", "meta": {"OBJECT_NAME": "FENGYUN 1C DEB", "OBJECT_ID": "1999-025AXU", "EPOCH": "2025-12-08T09:52:03.074016", "MEAN_MOTION": 14.86574376, "ECCENTRICITY": 0.01538604, "INCLINATION": 97.9428, "RA_OF_ASC_NODE": 37.7465, "ARG_OF_PERICENTER": 54.94, "MEAN_ANOMALY": 306.6136, "EPHEMERIS_TYPE": 0, "CLASSIFICATION_TYPE": "U", "NORAD_CAT_ID": 30882, "ELEMENT_SET_NO": 999, "REV_AT_EPOCH": 99590, "BSTAR": 0.001081007, "MEAN_MOTION_DOT": 0.00011848, "MEAN_MOTION_DDOT": 0}, "tle": {"line1": "1 30882U 99025AXU 25342.41114669  .00011848  00000+0  10810-2 0  9997", "line2": "2 30882  97.9428  37.7465 0153860  54.9400 306.6136 14.86574376995907"}}, "geometry": {"type": "Point", "coordinates": [-118.04397415245552, 70.61820770233913]}}, {"type": "Feature", "properties": {"norad_id": 30883, "name": "FENGYUN 1C DEB", "group": "fengyun-1c-debris", "lat": -45.334457604724285, "lon": 29.104790964696896, "alt_km": 849.7422945469089, "timestamp": "2025-12-09T05:43:21.005261+00:00", "meta": {"OBJECT_NAME": "FENGYUN 1C DEB", "OBJECT_ID": "1999-025AXV", "EPOCH": "2025-12-08T09:39:11.997216", "MEAN_MOTION": 14.14544388, "ECCENTRICITY": 0.01116431, "INCLINATION": 98.3623, "RA_OF_ASC_NODE": 19.7631, "ARG_OF_PERICENTER": 226.477, "MEAN_ANOMALY": 150.4699, "EPHEMERIS_TYPE": 0, "CLASSIFICATION_TYPE": "U", "NORAD_CAT_ID": 30883, "ELEMENT_SET_NO": 999, "REV_AT_EPOCH": 96856, "BSTAR": 0.00035441488, "MEAN_MOTION_DOT": 6.81e-06, "MEAN_MOTION_DDOT": 0}, "tle": {"line1": "1 30883U 99025AXV 25342.40222219  .00000681  00000+0  35441-3 0  9999", "line2": "2 30883  98.3623  19.7631 0111643 226.4770 150.4699 14.14544388968566"}}, "geometry": {"type": "Point", "coordinates": [29.104790964696896, -45.334457604724285]}}, {"type": "Feature", "properties": {"norad_id": 30884, "name": "FENGYUN 1C DEB", "group": "fengyun-1c-debris", "lat": -64.06484130037157, "lon": 137.9635915118196, "alt_km": 666.6659509522942, "timestamp": "2025-12-09T05:43:21.005271+00:00", "meta": {"OBJECT_NAME": "FENGYUN 1C DEB", "OBJECT_ID": "1999-025AXW", "EPOCH": "2025-12-08T17:11:52.327104", "MEAN_MOTION": 14.73302003, "ECCENTRICITY": 0.0067479, "INCLINATION": 98.8904, "RA_OF_ASC_NODE": 336.1676, "ARG_OF_PERICENTER": 348.4483, "MEAN_ANOMALY": 11.517, "EPHEMERIS_TYPE": 0, "CLASSIFICATION_TYPE": "U", "NORAD_CAT_ID": 30884, "ELEMENT_SET_NO": 999, "REV_AT_EPOCH": 98602, "BSTAR": 0.003339, "MEAN_MOTION_DOT": 0.00022396, "MEAN_MOTION_DDOT": 0}, "tle": {"line1": "1 30884U 99025AXW 25342.71657786  .00022396  00000+0  33390-2 0  9992", "line2": "2 30884  98.8904 336.1676 0067479 348.4483  11.5170 14.73302003986025"}}, "geometry": {"type": "Point", "coordinates": [137.9635915118196, -64.06484130037157]}}, {"type": "Feature", "properties": {"norad_id": 30885, "name": "FENGYUN 1C DEB", "group": "fengyun-1c-debris", "lat": -50.908061653604115, "lon": -7.761720145084426, "alt_km": 696.3711972155825, "timestamp": "2025-12-09T05:43:21.005282+00:00", "meta": {"OBJECT_NAME": "FENGYUN 1C DEB", "OBJECT_ID": "1999-025AXX", "EPOCH": "2025-12-08T01:12:55.410912", "MEAN_MOTION": 14.4928324, "ECCENTRICITY": 0.00540743, "INCLINATION": 99.0258, "RA_OF_ASC_NODE": 182.2506, "ARG_OF_PERICENTER": 233.4573, "MEAN_ANOMALY": 284.499, "EPHEMERIS_TYPE": 0, "CLASSIFICATION_TYPE": "U", "NORAD_CAT_ID": 30885, "ELEMENT_SET_NO": 999, "REV_AT_EPOCH": 96909, "BSTAR": 0.0035155877, "MEAN_MOTION_DOT": 0.00013636, "MEAN_MOTION_DDOT": 0}, "tle": {"line1": "1 30885U 99025AXX 25342.05064133  .00013636  00000+0  35156-2 0  9997", "line2": "2 30885  99.0258 182.2506 0054074 233.4573 284.4990 14.49283240969096"}}, "geometry": {"type": "Point", "coordinates": [-7.761720145084426, -50.908061653604115]}}, {"type": "Feature", "properties": {"norad_id": 30886, "name": "FENGYUN 1C DEB", "group": "fengyun-1c-debris", "lat": 76.99787660228098, "lon": 100.68879539092164, "alt_km": 794.0304015593947, "timestamp": "2025-12-09T05:43:21.005292+00:00", "meta": {"OBJECT_NAME": "FENGYUN 1C DEB", "OBJECT_ID": "1999-025AXY", "EPOCH": "2025-12-08T03:56:36.590496", "MEAN_MOTION": 14.22727915, "ECCENTRICITY": 0.00361256, "INCLINATION": 99.2087, "RA_OF_ASC_NODE": 234.9347, "ARG_OF_PERICENTER": 46.7519, "MEAN_ANOMALY": 313.6663, "EPHEMERIS_TYPE": 0, "CLASSIFICATION_TYPE": "U", "NORAD_CAT_ID": 30886, "ELEMENT_SET_NO": 999, "REV_AT_EPOCH": 96331, "BSTAR": 0.0023663908, "MEAN_MOTION_DOT": 5.293e-05, "MEAN_MOTION_DDOT": 0}, "tle": {"line1": "1 30886U 99025AXY 25342.16431239  .00005293  00000+0  23664-2 0  9996", "line2": "2 30886  99.2087 234.9347 0036125  46.7519 313.6663 14.22727915963313"}}, "geometry": {"type": "Point", "coordinates": [100.68879539092164, 76.99787660228098]}}, {"type": "Feature", "properties": {"norad_id": 30887, "name": "FENGYUN 1C DEB", "group": "fengyun-1c-debris", "lat": 31.525321297472257, "lon": -135.6659471520105, "alt_km": 903.2020330668329, "timestamp": "2025-12-09T05:43:21.005303+00:00", "meta": {"OBJECT_NAME": "FENGYUN 1C DEB", "OBJECT_ID": "1999-025AXZ", "EPOCH": "2025-12-08T14:03:42.218784", "MEAN_MOTION": 14.44777121, "ECCENTRICITY": 0.0263798, "INCLINATION": 98.3693, "RA_OF_ASC_NODE": 38.5095, "ARG_OF_PERICENTER": 300.4648, "MEAN_ANOMALY": 57.0727, "EPHEMERIS_TYPE": 0, "CLASSIFICATION_TYPE": "U", "NORAD_CAT_ID": 30887, "ELEMENT_SET_NO": 999, "REV_AT_EPOCH": 98068, "BSTAR": 0.0009807, "MEAN_MOTION_DOT": 5.174e-05, "MEAN_MOTION_DDOT": 0}, "tle": {"line1": "1 30887U 99025AXZ 25342.58590531  .00005174  00000+0  98070-3 0  9996", "line2": "2 30887  98.3693  38.5095 0263798 300.4648  57.0727 14.44777121980683"}}, "geometry": {"type": "Point", "coordinates": [-135.6659471520105, 31.525321297472257]}}, {"type": "Feature", "properties": {"norad_id": 30888, "name": "FENGYUN 1C DEB", "group": "fengyun-1c-debris", "lat": 67.0599036617166, "lon": -61.93413822596018, "alt_km": 582.1256676786788, "timestamp": "2025-12-09T05:43:21.005313+00:00", "meta": {"OBJECT_NAME": "FENGYUN 1C DEB", "OBJECT_ID": "1999-025AYA", "EPOCH": "2025-12-07T21:15:30.326688", "MEAN_MOTION": 14.93719985, "ECCENTRICITY": 0.00832581, "INCLINATION": 99.4822, "RA_OF_ASC_NODE": 319.6957, "ARG_OF_PERICENTER": 166.267, "MEAN_ANOMALY": 194.0837, "EPHEMERIS_TYPE": 0, "CLASSIFICATION_TYPE": "U", "NORAD_CAT_ID": 30888, "ELEMENT_SET_NO": 999, "REV_AT_EPOCH": 99853, "BSTAR": 0.0013841415, "MEAN_MOTION_DOT": 0.00015631, "MEAN_MOTION_DDOT": 0}, "tle": {"line1": "1 30888U 99025AYA 25341.88576767  .00015631  00000+0  13841-2 0  9995", "line2": "2 30888  99.4822 319.6957 0083258 166.2670 194.0837 14.93719985998539"}}, "geometry": {"type": "Point", "coordinates": [-61.93413822596018, 67.0599036617166]}}]}